[ {"OBJECT_NAME": "SHIJIAN-6 01A (SJ-6 01A)", "NORAD_CAT_ID": 28413, "MEAN_MOTION": 15.16490256, "ECCENTRICITY": 0.000806, "INCLINATION": 97.5981, "RA_OF_ASC_NODE": 97.9246, "ARG_OF_PERICENTER": 109.7222, "MEAN_ANOMALY": 250.4881, "BSTAR": 0.00047933, "EPOCH": "2026-03-12T00:32:04"}, {"OBJECT_NAME": "SHIJIAN-6 02B (SJ-6 02B)", "NORAD_CAT_ID": 29506, "MEAN_MOTION": 15.01014103, "ECCENTRICITY": 0.0013938, "INCLINATION": 97.7071, "RA_OF_ASC_NODE": 100.9455, "ARG_OF_PERICENTER": 35.4398, "MEAN_ANOMALY": 324.7749, "BSTAR": 0.00022449, "EPOCH": "2026-03-12T05:32:57"}, {"OBJECT_NAME": "SHIJIAN-30A (SJ-30A)", "NORAD_CAT_ID": 66545, "MEAN_MOTION": 15.1538923, "ECCENTRICITY": 0.0011386, "INCLINATION": 51.798, "RA_OF_ASC_NODE": 273.8657, "ARG_OF_PERICENTER": 300.2273, "MEAN_ANOMALY": 59.7576, "BSTAR": 0.0005092100000000001, "EPOCH": "2026-03-12T04:04:07"}, {"OBJECT_NAME": "SHIJIAN-6 03A (SJ-6 03A)", "NORAD_CAT_ID": 33408, "MEAN_MOTION": 15.16104225, "ECCENTRICITY": 0.0011222, "INCLINATION": 97.8538, "RA_OF_ASC_NODE": 101.1647, "ARG_OF_PERICENTER": 355.1225, "MEAN_ANOMALY": 4.9895, "BSTAR": 0.00035432000000000004, "EPOCH": "2026-03-12T04:42:39"}, {"OBJECT_NAME": "SHIJIAN-6 04B (SJ-6 04B)", "NORAD_CAT_ID": 37180, "MEAN_MOTION": 14.99125477, "ECCENTRICITY": 0.0008925, "INCLINATION": 97.8752, "RA_OF_ASC_NODE": 75.6618, "ARG_OF_PERICENTER": 284.8746, "MEAN_ANOMALY": 75.1488, "BSTAR": 8.4893e-05, "EPOCH": "2026-03-12T05:54:25"}, {"OBJECT_NAME": "SHIJIAN-20 (SJ-20)", "NORAD_CAT_ID": 44910, "MEAN_MOTION": 1.00082394, "ECCENTRICITY": 0.000152, "INCLINATION": 4.6683, "RA_OF_ASC_NODE": 76.2485, "ARG_OF_PERICENTER": 15.7007, "MEAN_ANOMALY": 205.4841, "BSTAR": 0.0, "EPOCH": "2026-03-12T03:47:25"}, {"OBJECT_NAME": "SHIJIAN-6 02A (SJ-6 02A)", "NORAD_CAT_ID": 29505, "MEAN_MOTION": 15.15741876, "ECCENTRICITY": 0.0004838, "INCLINATION": 97.6501, "RA_OF_ASC_NODE": 111.5144, "ARG_OF_PERICENTER": 108.2802, "MEAN_ANOMALY": 251.8957, "BSTAR": 0.00030412, "EPOCH": "2026-03-12T03:41:48"}, {"OBJECT_NAME": "SHIJIAN-6 03B (SJ-6 03B)", "NORAD_CAT_ID": 33409, "MEAN_MOTION": 15.03894204, "ECCENTRICITY": 0.001991, "INCLINATION": 97.8673, "RA_OF_ASC_NODE": 89.4456, "ARG_OF_PERICENTER": 14.3939, "MEAN_ANOMALY": 345.7849, "BSTAR": 0.00014578, "EPOCH": "2026-03-12T04:09:46"}, {"OBJECT_NAME": "SHIJIAN-6 04A (SJ-6 04A)", "NORAD_CAT_ID": 37179, "MEAN_MOTION": 15.16687416, "ECCENTRICITY": 0.0018419, "INCLINATION": 97.8383, "RA_OF_ASC_NODE": 91.1217, "ARG_OF_PERICENTER": 194.7628, "MEAN_ANOMALY": 165.3069, "BSTAR": 0.00043187, "EPOCH": "2026-03-12T05:13:53"}, {"OBJECT_NAME": "SHIJIAN-23 (SJ-23)", "NORAD_CAT_ID": 55131, "MEAN_MOTION": 1.00485153, "ECCENTRICITY": 0.000575, "INCLINATION": 3.466, "RA_OF_ASC_NODE": 79.5554, "ARG_OF_PERICENTER": 265.2257, "MEAN_ANOMALY": 238.5327, "BSTAR": 0.0, "EPOCH": "2026-03-11T18:34:44"}, {"OBJECT_NAME": "SHIJIAN-25 (SJ-25)", "NORAD_CAT_ID": 62485, "MEAN_MOTION": 1.00273812, "ECCENTRICITY": 0.0048557, "INCLINATION": 4.8819, "RA_OF_ASC_NODE": 61.7261, "ARG_OF_PERICENTER": 166.3409, "MEAN_ANOMALY": 351.9187, "BSTAR": 0.0, "EPOCH": "2026-03-11T18:52:57"}, {"OBJECT_NAME": "SHIJIAN-6 01B (SJ-6 01B)", "NORAD_CAT_ID": 28414, "MEAN_MOTION": 15.05656724, "ECCENTRICITY": 0.0006627, "INCLINATION": 97.6149, "RA_OF_ASC_NODE": 90.3009, "ARG_OF_PERICENTER": 105.8611, "MEAN_ANOMALY": 254.3346, "BSTAR": 0.00011931000000000001, "EPOCH": "2026-03-12T04:14:20"}, {"OBJECT_NAME": "SHIJIAN-26 (SJ-26)", "NORAD_CAT_ID": 64199, "MEAN_MOTION": 15.22591625, "ECCENTRICITY": 0.0018499, "INCLINATION": 97.4605, "RA_OF_ASC_NODE": 150.4113, "ARG_OF_PERICENTER": 336.7839, "MEAN_ANOMALY": 23.256, "BSTAR": 0.00030008000000000004, "EPOCH": "2026-03-12T05:30:37"}, {"OBJECT_NAME": "SHIJIAN-30B (SJ-30B)", "NORAD_CAT_ID": 66546, "MEAN_MOTION": 15.15324679, "ECCENTRICITY": 0.0009308, "INCLINATION": 51.7963, "RA_OF_ASC_NODE": 273.8531, "ARG_OF_PERICENTER": 302.5352, "MEAN_ANOMALY": 57.4725, "BSTAR": 0.00054976, "EPOCH": "2026-03-12T04:05:30"}, {"OBJECT_NAME": "SHIJIAN-30C (SJ-30C)", "NORAD_CAT_ID": 66547, "MEAN_MOTION": 15.15426464, "ECCENTRICITY": 0.0010112, "INCLINATION": 51.7972, "RA_OF_ASC_NODE": 273.8695, "ARG_OF_PERICENTER": 293.359, "MEAN_ANOMALY": 66.6322, "BSTAR": 0.00056799, "EPOCH": "2026-03-12T04:06:56"}, {"OBJECT_NAME": "SHIJIAN-28 (SJ-28)", "NORAD_CAT_ID": 66549, "MEAN_MOTION": 1.00271051, "ECCENTRICITY": 5.52e-05, "INCLINATION": 4.7899, "RA_OF_ASC_NODE": 273.6002, "ARG_OF_PERICENTER": 173.3077, "MEAN_ANOMALY": 208.3065, "BSTAR": 0.0, "EPOCH": "2026-03-12T00:35:06"}, {"OBJECT_NAME": "SHIJIAN-29A (SJ-29A)", "NORAD_CAT_ID": 67302, "MEAN_MOTION": 1.00273721, "ECCENTRICITY": 0.0002538, "INCLINATION": 3.1501, "RA_OF_ASC_NODE": 97.6081, "ARG_OF_PERICENTER": 312.2258, "MEAN_ANOMALY": 250.0919, "BSTAR": 0.0, "EPOCH": "2026-03-12T03:48:02"}, {"OBJECT_NAME": "SHIJIAN-29B (SJ-29B)", "NORAD_CAT_ID": 67403, "MEAN_MOTION": 1.00273223, "ECCENTRICITY": 0.000457, "INCLINATION": 3.15, "RA_OF_ASC_NODE": 97.5914, "ARG_OF_PERICENTER": 321.5925, "MEAN_ANOMALY": 240.814, "BSTAR": 0.0, "EPOCH": "2026-03-12T03:48:02"}, {"OBJECT_NAME": "BEIDOU-2 M4 (C12)", "NORAD_CAT_ID": 38251, "MEAN_MOTION": 1.86229837, "ECCENTRICITY": 0.0012233, "INCLINATION": 55.7415, "RA_OF_ASC_NODE": 307.3942, "ARG_OF_PERICENTER": 287.3312, "MEAN_ANOMALY": 72.5873, "BSTAR": 0.0, "EPOCH": "2026-03-11T09:28:12"}, {"OBJECT_NAME": "BEIDOU-3 M2 (C20)", "NORAD_CAT_ID": 43002, "MEAN_MOTION": 1.86230905, "ECCENTRICITY": 0.0009819, "INCLINATION": 56.6071, "RA_OF_ASC_NODE": 66.3236, "ARG_OF_PERICENTER": 329.3925, "MEAN_ANOMALY": 30.5698, "BSTAR": 0.0, "EPOCH": "2026-03-11T21:10:57"}]