SHIJIAN-6 01A (SJ-6 01A)
1 28413U 04035A   26071.02226888  .00009279  00000+0  47933-3 0  9997
2 28413  97.5981  97.9246 0008060 109.7222 250.4881 15.16490256172730
SHIJIAN-6 01B (SJ-6 01B)
1 28414U 04035B   26071.17662466  .00001662  00000+0  11931-3 0  9997
2 28414  97.6149  90.3009 0006627 105.8611 254.3346 15.05656724172223
SHIJIAN-6 02A (SJ-6 02A)
1 29505U 06046A   26071.15403073  .00005732  00000+0  30412-3 0  9995
2 29505  97.6501 111.5144 0004838 108.2802 251.8957 15.15741876 57567
SHIJIAN-6 02B (SJ-6 02B)
1 29506U 06046B   26071.23121876  .00002811  00000+0  22449-3 0  9999
2 29506  97.7071 100.9455 0013938  35.4398 324.7749 15.01014103 56198
SHIJIAN-6 03A (SJ-6 03A)
1 33408U 08053A   26071.19629087  .00006765  00000+0  35432-3 0  9995
2 33408  97.8538 101.1647 0011222 355.1225   4.9895 15.16104225948262
SHIJIAN-6 03B (SJ-6 03B)
1 33409U 08053B   26071.17345469  .00001951  00000+0  14578-3 0  9993
2 33409  97.8673  89.4456 0019910  14.3939 345.7849 15.03894204948160
SHIJIAN-6 04A (SJ-6 04A)
1 37179U 10051A   26071.21797572  .00008425  00000+0  43187-3 0  9994
2 37179  97.8383  91.1217 0018419 194.7628 165.3069 15.16687416842243
SHIJIAN-6 04B (SJ-6 04B)
1 37180U 10051B   26071.24612436  .00000971  00000+0  84893-4 0  9992
2 37180  97.8752  75.6618 0008925 284.8746  75.1488 14.99125477841156
BEIDOU-2 M4             
1 38251U 12018B   26070.39458933 -.00000044  00000+0  00000+0 0  9997
2 38251  55.7415 307.3942 0012233 287.3312  72.5873  1.86229837 94127
BEIDOU-3 M2             
1 43002U 17069B   26070.88260428  .00000001  00000+0  00000+0 0  9994
2 43002  56.6071  66.3236 0009819 329.3925  30.5698  1.86230905 56783
SHIJIAN-20 (SJ-20)      
1 44910U 19097A   26071.15793104 -.00000006  00000+0  00000+0 0  9995
2 44910   4.6683  76.2485 0001520  15.7007 205.4841  1.00082394 22721
SHIJIAN-23 (SJ-23)      
1 55131U 23002A   26070.77412479 -.00000278  00000+0  00000+0 0  9994
2 55131   3.4660  79.5554 0005750 265.2257 238.5327  1.00485153 11534
SHIJIAN-25 (SJ-25)      
1 62485U 25002A   26070.78677257 -.00000347  00000+0  00000+0 0  9991
2 62485   4.8819  61.7261 0048557 166.3409 351.9187  1.00273812  4381
SHIJIAN-26 (SJ-26)      
1 64199U 25115A   26071.22959764  .00006933  00000+0  30008-3 0  9997
2 64199  97.4605 150.4113 0018499 336.7839  23.2560 15.22591625 43684
SHIJIAN-30A (SJ-30A)    
1 66545U 25266A   26071.16953585  .00009450  00000+0  50921-3 0  9992
2 66545  51.7980 273.8657 0011386 300.2273  59.7576 15.15389230 17141
SHIJIAN-30B (SJ-30B)    
1 66546U 25266B   26071.17049619  .00010205  00000+0  54976-3 0  9992
2 66546  51.7963 273.8531 0009308 302.5352  57.4725 15.15324679 17145
SHIJIAN-30C (SJ-30C)    
1 66547U 25266C   26071.17148418  .00010587  00000+0  56799-3 0  9998
2 66547  51.7972 273.8695 0010112 293.3590  66.6322 15.15426464 17143
SHIJIAN-28 (SJ-28)      
1 66549U 25277A   26071.02437713 -.00000362  00000+0  00000+0 0  9996
2 66549   4.7899 273.6002 0000552 173.3077 208.3065  1.00271051  1180
SHIJIAN-29A (SJ-29A)    
1 67302U 25315A   26071.15836439 -.00000066  00000+0  00000+0 0  9990
2 67302   3.1501  97.6081 0002538 312.2258 250.0919  1.00273721   641
SHIJIAN-29B (SJ-29B)    
1 67403U 25315C   26071.15836439 -.00000067  00000+0  00000+0 0  9993
2 67403   3.1500  97.5914 0004570 321.5925 240.8140  1.00273223   716
